CCSDS_OMM_VERS = 2.0
CREATION_DATE  = 
ORIGINATOR     = 

OBJECT_NAME    = STARLINK-35485
OBJECT_ID      = 2025-245T
CENTER_NAME    = EARTH
REF_FRAME      = TEME
TIME_SYSTEM    = UTC
MEAN_ELEMENT_THEORY = SGP/SGP4

EPOCH          = 2025-11-13T04:00:03.998880
MEAN_MOTION    = 15.74215344
ECCENTRICITY   = .0001316
INCLINATION    = 53.1555
RA_OF_ASC_NODE = 110.4936
ARG_OF_PERICENTER = 64.8161
MEAN_ANOMALY   = 203.5799

EPHEMERIS_TYPE = 0
CLASSIFICATION_TYPE = U
NORAD_CAT_ID   = 66251
ELEMENT_SET_NO = 999
REV_AT_EPOCH   = 314
BSTAR          = -.27692E-4
MEAN_MOTION_DOT = -.4688E-4
MEAN_MOTION_DDOT = 0

CCSDS_OMM_VERS = 2.0
CREATION_DATE  = 
ORIGINATOR     = 

OBJECT_NAME    = STARLINK-35483
OBJECT_ID      = 2025-245U
CENTER_NAME    = EARTH
REF_FRAME      = TEME
TIME_SYSTEM    = UTC
MEAN_ELEMENT_THEORY = SGP/SGP4

EPOCH          = 2025-11-13T04:00:03.998880
MEAN_MOTION    = 15.74174970
ECCENTRICITY   = .0001107
INCLINATION    = 53.1556
RA_OF_ASC_NODE = 110.4846
ARG_OF_PERICENTER = 87.9078
MEAN_ANOMALY   = 184.3425

EPHEMERIS_TYPE = 0
CLASSIFICATION_TYPE = U
NORAD_CAT_ID   = 66252
ELEMENT_SET_NO = 999
REV_AT_EPOCH   = 330
BSTAR          = .30326E-3
MEAN_MOTION_DOT = .43989E-3
MEAN_MOTION_DDOT = 0

CCSDS_OMM_VERS = 2.0
CREATION_DATE  = 
ORIGINATOR     = 

OBJECT_NAME    = STARLINK-35486
OBJECT_ID      = 2025-245V
CENTER_NAME    = EARTH
REF_FRAME      = TEME
TIME_SYSTEM    = UTC
MEAN_ELEMENT_THEORY = SGP/SGP4

EPOCH          = 2025-11-13T04:00:03.998880
MEAN_MOTION    = 15.74191287
ECCENTRICITY   = .0001329
INCLINATION    = 53.1557
RA_OF_ASC_NODE = 110.4818
ARG_OF_PERICENTER = 70.2912
MEAN_ANOMALY   = 203.8746

EPHEMERIS_TYPE = 0
CLASSIFICATION_TYPE = U
NORAD_CAT_ID   = 66253
ELEMENT_SET_NO = 999
REV_AT_EPOCH   = 314
BSTAR          = .13734E-3
MEAN_MOTION_DOT = .19533E-3
MEAN_MOTION_DDOT = 0

CCSDS_OMM_VERS = 2.0
CREATION_DATE  = 
ORIGINATOR     = 

OBJECT_NAME    = STARLINK-35488
OBJECT_ID      = 2025-245W
CENTER_NAME    = EARTH
REF_FRAME      = TEME
TIME_SYSTEM    = UTC
MEAN_ELEMENT_THEORY = SGP/SGP4

EPOCH          = 2025-11-13T04:00:03.998880
MEAN_MOTION    = 15.74224475
ECCENTRICITY   = .0001288
INCLINATION    = 53.1556
RA_OF_ASC_NODE = 110.4766
ARG_OF_PERICENTER = 83.0670
MEAN_ANOMALY   = 192.9759

EPHEMERIS_TYPE = 0
CLASSIFICATION_TYPE = U
NORAD_CAT_ID   = 66254
ELEMENT_SET_NO = 999
REV_AT_EPOCH   = 335
BSTAR          = -.74623E-4
MEAN_MOTION_DOT = -.1156E-3
MEAN_MOTION_DDOT = 0

CCSDS_OMM_VERS = 2.0
CREATION_DATE  = 
ORIGINATOR     = 

OBJECT_NAME    = STARLINK-35616
OBJECT_ID      = 2025-245X
CENTER_NAME    = EARTH
REF_FRAME      = TEME
TIME_SYSTEM    = UTC
MEAN_ELEMENT_THEORY = SGP/SGP4

EPOCH          = 2025-11-13T04:00:03.998880
MEAN_MOTION    = 15.74225174
ECCENTRICITY   = .0001164
INCLINATION    = 53.1560
RA_OF_ASC_NODE = 110.4731
ARG_OF_PERICENTER = 96.0058
MEAN_ANOMALY   = 181.9540

EPHEMERIS_TYPE = 0
CLASSIFICATION_TYPE = U
NORAD_CAT_ID   = 66255
ELEMENT_SET_NO = 999
REV_AT_EPOCH   = 335
BSTAR          = -.24571E-3
MEAN_MOTION_DOT = -.36514E-3
MEAN_MOTION_DDOT = 0

CCSDS_OMM_VERS = 2.0
CREATION_DATE  = 
ORIGINATOR     = 

OBJECT_NAME    = STARLINK-35619
OBJECT_ID      = 2025-245Y
CENTER_NAME    = EARTH
REF_FRAME      = TEME
TIME_SYSTEM    = UTC
MEAN_ELEMENT_THEORY = SGP/SGP4

EPOCH          = 2025-11-13T04:00:03.998880
MEAN_MOTION    = 15.74196841
ECCENTRICITY   = .0001141
INCLINATION    = 53.1569
RA_OF_ASC_NODE = 110.4612
ARG_OF_PERICENTER = 82.9860
MEAN_ANOMALY   = 200.7441

EPHEMERIS_TYPE = 0
CLASSIFICATION_TYPE = U
NORAD_CAT_ID   = 66256
ELEMENT_SET_NO = 999
REV_AT_EPOCH   = 335
BSTAR          = -.84443E-4
MEAN_MOTION_DOT = -.12981E-3
MEAN_MOTION_DDOT = 0

CCSDS_OMM_VERS = 2.0
CREATION_DATE  = 
ORIGINATOR     = 

OBJECT_NAME    = STARLINK-35615
OBJECT_ID      = 2025-245Z
CENTER_NAME    = EARTH
REF_FRAME      = TEME
TIME_SYSTEM    = UTC
MEAN_ELEMENT_THEORY = SGP/SGP4

EPOCH          = 2025-11-13T04:00:03.998880
MEAN_MOTION    = 15.74165347
ECCENTRICITY   = .0000952
INCLINATION    = 53.1569
RA_OF_ASC_NODE = 110.4653
ARG_OF_PERICENTER = 101.7797
MEAN_ANOMALY   = 180.0333

EPHEMERIS_TYPE = 0
CLASSIFICATION_TYPE = U
NORAD_CAT_ID   = 66257
ELEMENT_SET_NO = 999
REV_AT_EPOCH   = 335
BSTAR          = .38494E-3
MEAN_MOTION_DOT = .56064E-3
MEAN_MOTION_DDOT = 0

CCSDS_OMM_VERS = 2.0
CREATION_DATE  = 
ORIGINATOR     = 

OBJECT_NAME    = STARLINK-34650
OBJECT_ID      = 2025-245AA
CENTER_NAME    = EARTH
REF_FRAME      = TEME
TIME_SYSTEM    = UTC
MEAN_ELEMENT_THEORY = SGP/SGP4

EPOCH          = 2025-11-13T04:00:03.998880
MEAN_MOTION    = 15.74255767
ECCENTRICITY   = .0001234
INCLINATION    = 53.1554
RA_OF_ASC_NODE = 110.4690
ARG_OF_PERICENTER = 96.2606
MEAN_ANOMALY   = 183.6315

EPHEMERIS_TYPE = 0
CLASSIFICATION_TYPE = U
NORAD_CAT_ID   = 66258
ELEMENT_SET_NO = 999
REV_AT_EPOCH   = 335
BSTAR          = -.97992E-3
MEAN_MOTION_DOT = -.142159E-2
MEAN_MOTION_DDOT = 0

CCSDS_OMM_VERS = 2.0
CREATION_DATE  = 
ORIGINATOR     = 

OBJECT_NAME    = STARLINK-35529
OBJECT_ID      = 2025-245AB
CENTER_NAME    = EARTH
REF_FRAME      = TEME
TIME_SYSTEM    = UTC
MEAN_ELEMENT_THEORY = SGP/SGP4

EPOCH          = 2025-11-13T04:00:03.998880
MEAN_MOTION    = 15.74177903
ECCENTRICITY   = .0001466
INCLINATION    = 53.1567
RA_OF_ASC_NODE = 110.4529
ARG_OF_PERICENTER = 89.9717
MEAN_ANOMALY   = 197.6154

EPHEMERIS_TYPE = 0
CLASSIFICATION_TYPE = U
NORAD_CAT_ID   = 66259
ELEMENT_SET_NO = 999
REV_AT_EPOCH   = 335
BSTAR          = .31062E-3
MEAN_MOTION_DOT = .45084E-3
MEAN_MOTION_DDOT = 0

CCSDS_OMM_VERS = 2.0
CREATION_DATE  = 
ORIGINATOR     = 

OBJECT_NAME    = STARLINK-35420
OBJECT_ID      = 2025-245AC
CENTER_NAME    = EARTH
REF_FRAME      = TEME
TIME_SYSTEM    = UTC
MEAN_ELEMENT_THEORY = SGP/SGP4

EPOCH          = 2025-11-13T04:00:03.998880
MEAN_MOTION    = 15.74169851
ECCENTRICITY   = .0001177
INCLINATION    = 53.1566
RA_OF_ASC_NODE = 110.4568
ARG_OF_PERICENTER = 93.3079
MEAN_ANOMALY   = 192.3710

EPHEMERIS_TYPE = 0
CLASSIFICATION_TYPE = U
NORAD_CAT_ID   = 66260
ELEMENT_SET_NO = 999
REV_AT_EPOCH   = 335
BSTAR          = .29336E-3
MEAN_MOTION_DOT = .42515E-3
MEAN_MOTION_DDOT = 0

CCSDS_OMM_VERS = 2.0
CREATION_DATE  = 
ORIGINATOR     = 

OBJECT_NAME    = STARLINK-35536
OBJECT_ID      = 2025-245AD
CENTER_NAME    = EARTH
REF_FRAME      = TEME
TIME_SYSTEM    = UTC
MEAN_ELEMENT_THEORY = SGP/SGP4

EPOCH          = 2025-11-13T04:00:03.998880
MEAN_MOTION    = 15.74188542
ECCENTRICITY   = .0000673
INCLINATION    = 53.1567
RA_OF_ASC_NODE = 110.4490
ARG_OF_PERICENTER = 82.9087
MEAN_ANOMALY   = 206.5851

EPHEMERIS_TYPE = 0
CLASSIFICATION_TYPE = U
NORAD_CAT_ID   = 66261
ELEMENT_SET_NO = 999
REV_AT_EPOCH   = 335
BSTAR          = .22373E-3
MEAN_MOTION_DOT = .32262E-3
MEAN_MOTION_DDOT = 0

CCSDS_OMM_VERS = 2.0
CREATION_DATE  = 
ORIGINATOR     = 

OBJECT_NAME    = STARLINK-35487
OBJECT_ID      = 2025-245AE
CENTER_NAME    = EARTH
REF_FRAME      = TEME
TIME_SYSTEM    = UTC
MEAN_ELEMENT_THEORY = SGP/SGP4

EPOCH          = 2025-11-13T04:00:03.998880
MEAN_MOTION    = 15.74184488
ECCENTRICITY   = .0000911
INCLINATION    = 53.1565
RA_OF_ASC_NODE = 110.4451
ARG_OF_PERICENTER = 83.6755
MEAN_ANOMALY   = 207.7468

EPHEMERIS_TYPE = 0
CLASSIFICATION_TYPE = U
NORAD_CAT_ID   = 66262
ELEMENT_SET_NO = 999
REV_AT_EPOCH   = 330
BSTAR          = .76418E-4
MEAN_MOTION_DOT = .10574E-3
MEAN_MOTION_DDOT = 0

CCSDS_OMM_VERS = 2.0
CREATION_DATE  = 
ORIGINATOR     = 

OBJECT_NAME    = SHENZHOU-21 (SZ-21)
OBJECT_ID      = 2025-246A
CENTER_NAME    = EARTH
REF_FRAME      = TEME
TIME_SYSTEM    = UTC
MEAN_ELEMENT_THEORY = SGP/SGP4

EPOCH          = 2025-11-12T22:14:43.042848
MEAN_MOTION    = 15.61060096
ECCENTRICITY   = .00042148
INCLINATION    = 41.4653
RA_OF_ASC_NODE = 197.6593
ARG_OF_PERICENTER = 14.6230
MEAN_ANOMALY   = 345.4730

EPHEMERIS_TYPE = 0
CLASSIFICATION_TYPE = U
NORAD_CAT_ID   = 66263
ELEMENT_SET_NO = 999
REV_AT_EPOCH   = 25813
BSTAR          = .61205692E-3
MEAN_MOTION_DOT = .53056E-3
MEAN_MOTION_DDOT = 0

CCSDS_OMM_VERS = 2.0
CREATION_DATE  = 
ORIGINATOR     = 

OBJECT_NAME    = LVM3 R/B
OBJECT_ID      = 2025-249A
CENTER_NAME    = EARTH
REF_FRAME      = TEME
TIME_SYSTEM    = UTC
MEAN_ELEMENT_THEORY = SGP/SGP4

EPOCH          = 2025-11-12T21:20:15.367200
MEAN_MOTION    = 3.12671640
ECCENTRICITY   = .6679943
INCLINATION    = 21.3368
RA_OF_ASC_NODE = 154.7033
ARG_OF_PERICENTER = 188.8367
MEAN_ANOMALY   = 147.5355

EPHEMERIS_TYPE = 0
CLASSIFICATION_TYPE = U
NORAD_CAT_ID   = 66310
ELEMENT_SET_NO = 999
REV_AT_EPOCH   = 34
BSTAR          = .14208E-2
MEAN_MOTION_DOT = .50417E-3
MEAN_MOTION_DDOT = .87268E-6

CCSDS_OMM_VERS = 2.0
CREATION_DATE  = 
ORIGINATOR     = 

OBJECT_NAME    = CMS-03 (GSAT-7R)
OBJECT_ID      = 2025-249B
CENTER_NAME    = EARTH
REF_FRAME      = TEME
TIME_SYSTEM    = UTC
MEAN_ELEMENT_THEORY = SGP/SGP4

EPOCH          = 2025-11-13T02:47:18.110976
MEAN_MOTION    = 1.00270841
ECCENTRICITY   = .0004437
INCLINATION    = 0.2153
RA_OF_ASC_NODE = 271.3443
ARG_OF_PERICENTER = 204.2110
MEAN_ANOMALY   = 72.2552

EPHEMERIS_TYPE = 0
CLASSIFICATION_TYPE = U
NORAD_CAT_ID   = 66311
ELEMENT_SET_NO = 999
REV_AT_EPOCH   = 18
BSTAR          = 0
MEAN_MOTION_DOT = -.26E-5
MEAN_MOTION_DDOT = 0

